{
    "links": {
        "self": "http://www.neowsapp.com/rest/v1/neo/3753076?api_key=iIulBulltgU6a56xZRHN4H3l9WmuAYTsLGpBGhQ2"
    },
    "id": "3753076",
    "neo_reference_id": "3753076",
    "name": "(2016 JE18)",
    "designation": "2016 JE18",
    "nasa_jpl_url": "http://ssd.jpl.nasa.gov/sbdb.cgi?sstr=3753076",
    "absolute_magnitude_h": 26.3,
    "estimated_diameter": {
        "kilometers": {
            "estimated_diameter_min": 0.0146067964,
            "estimated_diameter_max": 0.0326617897
        },
        "meters": {
            "estimated_diameter_min": 14.6067964271,
            "estimated_diameter_max": 32.6617897446
        },
        "miles": {
            "estimated_diameter_min": 0.0090762397,
            "estimated_diameter_max": 0.020295089
        },
        "feet": {
            "estimated_diameter_min": 47.92256199,
            "estimated_diameter_max": 107.1581062656
        }
    },
    "is_potentially_hazardous_asteroid": false,
    "close_approach_data": [
        {
            "close_approach_date": "1964-04-20",
            "close_approach_date_full": "1964-Apr-20 12:30",
            "epoch_date_close_approach": -179839800000,
            "relative_velocity": {
                "kilometers_per_second": "15.0974993624",
                "kilometers_per_hour": "54350.997704555",
                "miles_per_hour": "33771.5963236998"
            },
            "miss_distance": {
                "astronomical": "0.3218961417",
                "lunar": "125.2175991213",
                "kilometers": "48154977.159538179",
                "miles": "29922115.3000137102"
            },
            "orbiting_body": "Earth"
        },
        {
            "close_approach_date": "2013-04-17",
            "close_approach_date_full": "2013-Apr-17 12:37",
            "epoch_date_close_approach": 1366202220000,
            "relative_velocity": {
                "kilometers_per_second": "16.8271148641",
                "kilometers_per_hour": "60577.6135106455",
                "miles_per_hour": "37640.5732394342"
            },
            "miss_distance": {
                "astronomical": "0.3878065728",
                "lunar": "150.8567568192",
                "kilometers": "58015037.262879936",
                "miles": "36048872.5467216768"
            },
            "orbiting_body": "Earth"
        },
        {
            "close_approach_date": "2013-10-02",
            "close_approach_date_full": "2013-Oct-02 11:00",
            "epoch_date_close_approach": 1380711600000,
            "relative_velocity": {
                "kilometers_per_second": "8.3378984987",
                "kilometers_per_hour": "30016.4345952949",
                "miles_per_hour": "18651.0451517264"
            },
            "miss_distance": {
                "astronomical": "0.4548895531",
                "lunar": "176.9520361559",
                "kilometers": "68050508.229011897",
                "miles": "42284625.0493902986"
            },
            "orbiting_body": "Earth"
        },
        {
            "close_approach_date": "2016-05-11",
            "close_approach_date_full": "2016-May-11 15:48",
            "epoch_date_close_approach": 1462981680000,
            "relative_velocity": {
                "kilometers_per_second": "8.5200090191",
                "kilometers_per_hour": "30672.0324689243",
                "miles_per_hour": "19058.4081749269"
            },
            "miss_distance": {
                "astronomical": "0.0242371941",
                "lunar": "9.4282685049",
                "kilometers": "3625832.612136567",
                "miles": "2252987.9127439446"
            },
            "orbiting_body": "Earth"
        },
        {
            "close_approach_date": "2019-07-14",
            "close_approach_date_full": "2019-Jul-14 14:52",
            "epoch_date_close_approach": 1563115920000,
            "relative_velocity": {
                "kilometers_per_second": "12.5055700027",
                "kilometers_per_hour": "45020.0520098266",
                "miles_per_hour": "27973.7095391058"
            },
            "miss_distance": {
                "astronomical": "0.3658061596",
                "lunar": "142.2985960844",
                "kilometers": "54723822.309040052",
                "miles": "34003806.4053826376"
            },
            "orbiting_body": "Earth"
        }
    ],
    "orbital_data": {
        "orbit_id": "5",
        "orbit_determination_date": "2017-04-06 08:26:00",
        "first_observation_date": "2016-05-08",
        "last_observation_date": "2016-05-11",
        "data_arc_in_days": 3,
        "observations_used": 67,
        "orbit_uncertainty": "7",
        "minimum_orbit_intersection": ".0241043",
        "jupiter_tisserand_invariant": "4.869",
        "epoch_osculation": "2459000.5",
        "eccentricity": ".238403018305513",
        "semi_major_axis": "1.328680190380448",
        "inclination": "13.79652903659364",
        "ascending_node_longitude": "48.75573480887002",
        "orbital_period": "559.4085720279201",
        "perihelion_distance": "1.011918822631006",
        "perihelion_argument": "208.4566142000755",
        "aphelion_distance": "1.645441558129891",
        "perihelion_time": "2459222.726630454405",
        "mean_anomaly": "216.9889862903406",
        "mean_motion": ".6435367958252031",
        "equinox": "J2000",
        "orbit_class": {
            "orbit_class_type": "APO",
            "orbit_class_description": "Near-Earth asteroid orbits which cross the Earth’s orbit similar to that of 1862 Apollo",
            "orbit_class_range": "a (semi-major axis) > 1.0 AU; q (perihelion) < 1.017 AU"
        }
    },
    "is_sentry_object": false
}